{"type": "FeatureCollection", "features": [ {"type": "Feature", "properties": {"norad_id": 30369, "name": "FENGYUN 1C DEB", "group": "fengyun-1c-debris", "lat": 69.65783595151282, "lon": -25.968860785585033, "alt_km": 834.5847238159504, "timestamp": "2025-12-27T12:55:14.781474+00:00", "meta": {"OBJECT_NAME": "FENGYUN 1C DEB", "OBJECT_ID": "1999-025ACG", "EPOCH": "2025-12-27T05:52:56.125920", "MEAN_MOTION": 14.1206812, "ECCENTRICITY": 0.00998792, "INCLINATION": 98.7219, "RA_OF_ASC_NODE": 358.2056, "ARG_OF_PERICENTER": 154.2799, "MEAN_ANOMALY": 228.4424, "EPHEMERIS_TYPE": 0, "CLASSIFICATION_TYPE": "U", "NORAD_CAT_ID": 30369, "ELEMENT_SET_NO": 999, "REV_AT_EPOCH": 97451, "BSTAR": 0.00019161286, "MEAN_MOTION_DOT": 3.26e-06, "MEAN_MOTION_DDOT": 0}, "tle": {"line1": "1 30369U 99025ACG 25361.24509405  .00000326  00000+0  19161-3 0  9993", "line2": "2 30369  98.7219 358.2056 0099879 154.2799 228.4424 14.12068120974514"}}, "geometry": {"type": "Point", "coordinates": [-25.968860785585033, 69.65783595151282]}}, {"type": "Feature", "properties": {"norad_id": 30370, "name": "FENGYUN 1C DEB", "group": "fengyun-1c-debris", "lat": 17.76637928602444, "lon": 54.8825193519703, "alt_km": 844.1905451719795, "timestamp": "2025-12-27T12:55:14.781484+00:00", "meta": {"OBJECT_NAME": "FENGYUN 1C DEB", "OBJECT_ID": "1999-025ACH", "EPOCH": "2025-12-27T02:56:31.229088", "MEAN_MOTION": 14.19226126, "ECCENTRICITY": 0.00997673, "INCLINATION": 99.0555, "RA_OF_ASC_NODE": 57.3868, "ARG_OF_PERICENTER": 275.9638, "MEAN_ANOMALY": 137.892, "EPHEMERIS_TYPE": 0, "CLASSIFICATION_TYPE": "U", "NORAD_CAT_ID": 30370, "ELEMENT_SET_NO": 999, "REV_AT_EPOCH": 97298, "BSTAR": 0.0014326407, "MEAN_MOTION_DOT": 3.109e-05, "MEAN_MOTION_DDOT": 0}, "tle": {"line1": "1 30370U 99025ACH 25361.12258367  .00003109  00000+0  14326-2 0  9999", "line2": "2 30370  99.0555  57.3868 0099767 275.9638 137.8920 14.19226126972982"}}, "geometry": {"type": "Point", "coordinates": [54.8825193519703, 17.76637928602444]}}, {"type": "Feature", "properties": {"norad_id": 30371, "name": "FENGYUN 1C DEB", "group": "fengyun-1c-debris", "lat": -79.12681047309182, "lon": 172.55947935416756, "alt_km": 793.4914719028347, "timestamp": "2025-12-27T12:55:14.781495+00:00", "meta": {"OBJECT_NAME": "FENGYUN 1C DEB", "OBJECT_ID": "1999-025ACJ", "EPOCH": "2025-12-27T01:45:32.999040", "MEAN_MOTION": 14.30306206, "ECCENTRICITY": 0.00068905, "INCLINATION": 98.5747, "RA_OF_ASC_NODE": 43.8676, "ARG_OF_PERICENTER": 288.1247, "MEAN_ANOMALY": 101.8757, "EPHEMERIS_TYPE": 0, "CLASSIFICATION_TYPE": "U", "NORAD_CAT_ID": 30371, "ELEMENT_SET_NO": 999, "REV_AT_EPOCH": 98108, "BSTAR": 0.0011581614, "MEAN_MOTION_DOT": 2.964e-05, "MEAN_MOTION_DDOT": 0}, "tle": {"line1": "1 30371U 99025ACJ 25361.07329860  .00002964  00000+0  11582-2 0  9990", "line2": "2 30371  98.5747  43.8676 0006890 288.1247 101.8757 14.30306206981085"}}, "geometry": {"type": "Point", "coordinates": [172.55947935416756, -79.12681047309182]}}, {"type": "Feature", "properties": {"norad_id": 30374, "name": "FENGYUN 1C DEB", "group": "fengyun-1c-debris", "lat": -25.614536839601122, "lon": 42.35897279657471, "alt_km": 690.6118888782448, "timestamp": "2025-12-27T12:55:14.781505+00:00", "meta": {"OBJECT_NAME": "FENGYUN 1C DEB", "OBJECT_ID": "1999-025ACM", "EPOCH": "2025-12-27T04:21:24.940224", "MEAN_MOTION": 14.61491547, "ECCENTRICITY": 0.00398654, "INCLINATION": 99.2725, "RA_OF_ASC_NODE": 226.4517, "ARG_OF_PERICENTER": 123.5174, "MEAN_ANOMALY": 5.5739, "EPHEMERIS_TYPE": 0, "CLASSIFICATION_TYPE": "U", "NORAD_CAT_ID": 30374, "ELEMENT_SET_NO": 999, "REV_AT_EPOCH": 99133, "BSTAR": 0.0018543313, "MEAN_MOTION_DOT": 9.25e-05, "MEAN_MOTION_DDOT": 0}, "tle": {"line1": "1 30374U 99025ACM 25361.18153866  .00009250  00000+0  18543-2 0  9995", "line2": "2 30374  99.2725 226.4517 0039865 123.5174   5.5739 14.61491547991330"}}, "geometry": {"type": "Point", "coordinates": [42.35897279657471, -25.614536839601122]}}, {"type": "Feature", "properties": {"norad_id": 30377, "name": "FENGYUN 1C DEB", "group": "fengyun-1c-debris", "lat": -63.990505815785355, "lon": 39.31638567896093, "alt_km": 872.2724557946422, "timestamp": "2025-12-27T12:55:14.781515+00:00", "meta": {"OBJECT_NAME": "FENGYUN 1C DEB", "OBJECT_ID": "1999-025ACQ", "EPOCH": "2025-12-26T01:31:30.668160", "MEAN_MOTION": 13.99186408, "ECCENTRICITY": 0.01178867, "INCLINATION": 98.8928, "RA_OF_ASC_NODE": 19.169, "ARG_OF_PERICENTER": 229.5897, "MEAN_ANOMALY": 199.0692, "EPHEMERIS_TYPE": 0, "CLASSIFICATION_TYPE": "U", "NORAD_CAT_ID": 30377, "ELEMENT_SET_NO": 999, "REV_AT_EPOCH": 96393, "BSTAR": 0.0004794695, "MEAN_MOTION_DOT": 6.94e-06, "MEAN_MOTION_DDOT": 0}, "tle": {"line1": "1 30377U 99025ACQ 25360.06354940  .00000694  00000+0  47947-3 0  9994", "line2": "2 30377  98.8928  19.1690 0117886 229.5897 199.0692 13.99186408963930"}}, "geometry": {"type": "Point", "coordinates": [39.31638567896093, -63.990505815785355]}}, {"type": "Feature", "properties": {"norad_id": 30379, "name": "FENGYUN 1C DEB", "group": "fengyun-1c-debris", "lat": 17.375165835003454, "lon": -161.39593306772042, "alt_km": 859.2995018378015, "timestamp": "2025-12-27T12:55:14.781525+00:00", "meta": {"OBJECT_NAME": "FENGYUN 1C DEB", "OBJECT_ID": "1999-025ACS", "EPOCH": "2025-12-27T07:07:23.724768", "MEAN_MOTION": 14.08049606, "ECCENTRICITY": 0.00357021, "INCLINATION": 98.7578, "RA_OF_ASC_NODE": 15.605, "ARG_OF_PERICENTER": 237.1475, "MEAN_ANOMALY": 141.7533, "EPHEMERIS_TYPE": 0, "CLASSIFICATION_TYPE": "U", "NORAD_CAT_ID": 30379, "ELEMENT_SET_NO": 999, "REV_AT_EPOCH": 97022, "BSTAR": 0.00023595465, "MEAN_MOTION_DOT": 3.61e-06, "MEAN_MOTION_DDOT": 0}, "tle": {"line1": "1 30379U 99025ACS 25361.29680237  .00000361  00000+0  23595-3 0  9997", "line2": "2 30379  98.7578  15.6050 0035702 237.1475 141.7533 14.08049606970223"}}, "geometry": {"type": "Point", "coordinates": [-161.39593306772042, 17.375165835003454]}}, {"type": "Feature", "properties": {"norad_id": 30380, "name": "FENGYUN 1C DEB", "group": "fengyun-1c-debris", "lat": -48.53226766672352, "lon": 60.26503489337996, "alt_km": 823.0333489962277, "timestamp": "2025-12-27T12:55:14.781536+00:00", "meta": {"OBJECT_NAME": "FENGYUN 1C DEB", "OBJECT_ID": "1999-025ACT", "EPOCH": "2025-12-26T02:23:34.239840", "MEAN_MOTION": 14.50703403, "ECCENTRICITY": 0.01780989, "INCLINATION": 98.9127, "RA_OF_ASC_NODE": 48.5131, "ARG_OF_PERICENTER": 177.1536, "MEAN_ANOMALY": 183.0715, "EPHEMERIS_TYPE": 0, "CLASSIFICATION_TYPE": "U", "NORAD_CAT_ID": 30380, "ELEMENT_SET_NO": 999, "REV_AT_EPOCH": 99759, "BSTAR": 0.00027594151, "MEAN_MOTION_DOT": 1.271e-05, "MEAN_MOTION_DDOT": 0}, "tle": {"line1": "1 30380U 99025ACT 25360.09970185  .00001271  00000+0  27594-3 0  9994", "line2": "2 30380  98.9127  48.5131 0178098 177.1536 183.0715 14.50703403997598"}}, "geometry": {"type": "Point", "coordinates": [60.26503489337996, -48.53226766672352]}}, {"type": "Feature", "properties": {"norad_id": 30381, "name": "FENGYUN 1C DEB", "group": "fengyun-1c-debris", "lat": 67.08044168955188, "lon": 14.774074703644505, "alt_km": 810.4736256761853, "timestamp": "2025-12-27T12:55:14.781546+00:00", "meta": {"OBJECT_NAME": "FENGYUN 1C DEB", "OBJECT_ID": "1999-025ACU", "EPOCH": "2025-12-24T13:13:19.655616", "MEAN_MOTION": 14.12982436, "ECCENTRICITY": 0.00538965, "INCLINATION": 98.8127, "RA_OF_ASC_NODE": 33.3585, "ARG_OF_PERICENTER": 42.5981, "MEAN_ANOMALY": 317.9353, "EPHEMERIS_TYPE": 0, "CLASSIFICATION_TYPE": "U", "NORAD_CAT_ID": 30381, "ELEMENT_SET_NO": 999, "REV_AT_EPOCH": 92333, "BSTAR": 0.00093102658, "MEAN_MOTION_DOT": 1.716e-05, "MEAN_MOTION_DDOT": 0}, "tle": {"line1": "1 30381U 99025ACU 25358.55092194  .00001716  00000+0  93103-3 0  9991", "line2": "2 30381  98.8127  33.3585 0053896  42.5981 317.9353 14.12982436923330"}}, "geometry": {"type": "Point", "coordinates": [14.774074703644505, 67.08044168955188]}}, {"type": "Feature", "properties": {"norad_id": 30382, "name": "FENGYUN 1C DEB", "group": "fengyun-1c-debris", "lat": -8.63947798784246, "lon": 40.760778794907864, "alt_km": 723.1191389607066, "timestamp": "2025-12-27T12:55:14.781556+00:00", "meta": {"OBJECT_NAME": "FENGYUN 1C DEB", "OBJECT_ID": "1999-025ACV", "EPOCH": "2025-12-27T01:26:40.809120", "MEAN_MOTION": 14.25353136, "ECCENTRICITY": 0.01542703, "INCLINATION": 98.4982, "RA_OF_ASC_NODE": 38.9956, "ARG_OF_PERICENTER": 314.9149, "MEAN_ANOMALY": 103.1643, "EPHEMERIS_TYPE": 0, "CLASSIFICATION_TYPE": "U", "NORAD_CAT_ID": 30382, "ELEMENT_SET_NO": 999, "REV_AT_EPOCH": 97739, "BSTAR": 0.0010492345, "MEAN_MOTION_DOT": 2.756e-05, "MEAN_MOTION_DDOT": 0}, "tle": {"line1": "1 30382U 99025ACV 25361.06019455  .00002756  00000+0  10492-2 0  9995", "line2": "2 30382  98.4982  38.9956 0154270 314.9149 103.1643 14.25353136977394"}}, "geometry": {"type": "Point", "coordinates": [40.760778794907864, -8.63947798784246]}}, {"type": "Feature", "properties": {"norad_id": 30385, "name": "FENGYUN 1C DEB", "group": "fengyun-1c-debris", "lat": -54.715368935874864, "lon": 36.163708370889026, "alt_km": 722.1142887531369, "timestamp": "2025-12-27T12:55:14.781566+00:00", "meta": {"OBJECT_NAME": "FENGYUN 1C DEB", "OBJECT_ID": "1999-025ACY", "EPOCH": "2025-12-26T21:04:29.078112", "MEAN_MOTION": 14.38815392, "ECCENTRICITY": 0.0124732, "INCLINATION": 99.0809, "RA_OF_ASC_NODE": 22.4027, "ARG_OF_PERICENTER": 247.7035, "MEAN_ANOMALY": 237.4095, "EPHEMERIS_TYPE": 0, "CLASSIFICATION_TYPE": "U", "NORAD_CAT_ID": 30385, "ELEMENT_SET_NO": 999, "REV_AT_EPOCH": 98972, "BSTAR": 0.00032365, "MEAN_MOTION_DOT": 1.035e-05, "MEAN_MOTION_DDOT": 0}, "tle": {"line1": "1 30385U 99025ACY 25360.87811433  .00001035  00000+0  32365-3 0  9995", "line2": "2 30385  99.0809  22.4027 0124732 247.7035 237.4095 14.38815392989729"}}, "geometry": {"type": "Point", "coordinates": [36.163708370889026, -54.715368935874864]}}]}